CTC2_L_00501001-01
1 37024U 24044DG  26070.40849537  .00000000  00000+0  00000-0 0  9994
2 37024 101.2000   0.0000 0000000   0.0000   0.0000 12.53473438    13
CTC2_L_00501001-02
1 37025U 26827EG  26070.40849537  .00000000  00000+0  00000-0 0  9996
2 37025 101.2000   0.0000 0000000   0.0000  45.0000 12.53473438    13
CTC2_L_00501001-03
1 37026U 24954WD  26070.40849537  .00000000  00000+0  00000-0 0  9996
2 37026 101.2000   0.0000 0000000   0.0000  90.0000 12.53473438    14
CTC2_L_00501001-04
1 37027U 25095PD  26070.40849537  .00000000  00000+0  00000-0 0  9994
2 37027 101.2000   0.0000 0000000   0.0000 135.0000 12.53473438    15
CTC2_L_00501001-05
1 37028U 25901ZI  26070.40849537  .00000000  00000+0  00000-0 0  9991
2 37028 101.2000   0.0000 0000000   0.0000 180.0000 12.53473438    16
CTC2_L_00501001-06
1 37029U 25140NJ  26070.40849537  .00000000  00000+0  00000-0 0  9997
2 37029 101.2000   0.0000 0000000   0.0000 225.0000 12.53473438    17
CTC2_L_00501001-07
1 37030U 25573MA  26070.40849537  .00000000  00000+0  00000-0 0  9999
2 37030 101.2000   0.0000 0000000   0.0000 270.0000 12.53473438    19
CTC2_L_00501001-08
1 37031U 26617DR  26070.40849537  .00000000  00000+0  00000-0 0  9990
2 37031 101.2000   0.0000 0000000   0.0000 315.0000 12.53473438    10
CTC2_L_00501002-01
1 37032U 25488DH  26070.40849537  .00000000  00000+0  00000-0 0  9996
2 37032 101.2000  12.0000 0000000   0.0000   6.0000 12.53473438    11
CTC2_L_00501002-02
1 37033U 24728YX  26070.40849537  .00000000  00000+0  00000-0 0  9993
2 37033 101.2000  12.0000 0000000   0.0000  51.0000 12.53473438    12
CTC2_L_00501002-03
1 37034U 22928IY  26070.40849537  .00000000  00000+0  00000-0 0  9994
2 37034 101.2000  12.0000 0000000   0.0000  96.0000 12.53473438    12
CTC2_L_00501002-04
1 37035U 26761FG  26070.40849537  .00000000  00000+0  00000-0 0  9994
2 37035 101.2000  12.0000 0000000   0.0000 141.0000 12.53473438    14
CTC2_L_00501002-05
1 37036U 23945XR  26070.40849537  .00000000  00000+0  00000-0 0  9996
2 37036 101.2000  12.0000 0000000   0.0000 186.0000 12.53473438    14
CTC2_L_00501002-06
1 37037U 25162WI  26070.40849537  .00000000  00000+0  00000-0 0  9990
2 37037 101.2000  12.0000 0000000   0.0000 231.0000 12.53473438    16
CTC2_L_00501002-07
1 37038U 24534ZY  26070.40849537  .00000000  00000+0  00000-0 0  9993
2 37038 101.2000  12.0000 0000000   0.0000 276.0000 12.53473438    16
CTC2_L_00501002-08
1 37039U 24342CE  26070.40849537  .00000000  00000+0  00000-0 0  9991
2 37039 101.2000  12.0000 0000000   0.0000 321.0000 12.53473438    18
CTC2_L_00501003-01
1 37040U 26411ZZ  26070.40849537  .00000000  00000+0  00000-0 0  9992
2 37040 101.2000  24.0000 0000000   0.0000  12.0000 12.53473438    10
CTC2_L_00501003-02
1 37041U 22457XT  26070.40849537  .00000000  00000+0  00000-0 0  9999
2 37041 101.2000  24.0000 0000000   0.0000  57.0000 12.53473438    10
CTC2_L_00501003-03
1 37042U 24683H   26070.40849537  .00000000  00000+0  00000-0 0  9993
2 37042 101.2000  24.0000 0000000   0.0000 102.0000 12.53473438    12
CTC2_L_00501003-04
1 37043U 25912WS  26070.40849537  .00000000  00000+0  00000-0 0  9990
2 37043 101.2000  24.0000 0000000   0.0000 147.0000 12.53473438    12
CTC2_L_00501003-05
1 37044U 23186NW  26070.40849537  .00000000  00000+0  00000-0 0  9992
2 37044 101.2000  24.0000 0000000   0.0000 192.0000 12.53473438    13
CTC2_L_00501003-06
1 37045U 22934AR  26070.40849537  .00000000  00000+0  00000-0 0  9993
2 37045 101.2000  24.0000 0000000   0.0000 237.0000 12.53473438    14
CTC2_L_00501003-07
1 37046U 23897GX  26070.40849537  .00000000  00000+0  00000-0 0  9993
2 37046 101.2000  24.0000 0000000   0.0000 282.0000 12.53473438    15
CTC2_L_00501003-08
1 37047U 26637VV  26070.40849537  .00000000  00000+0  00000-0 0  9999
2 37047 101.2000  24.0000 0000000   0.0000 327.0000 12.53473438    16
CTC2_L_00501004-01
1 37048U 26806GP  26070.40849537  .00000000  00000+0  00000-0 0  9998
2 37048 101.2000  36.0000 0000000   0.0000  18.0000 12.53473438    17
CTC2_L_00501004-02
1 37049U 25199TL  26070.40849537  .00000000  00000+0  00000-0 0  9993
2 37049 101.2000  36.0000 0000000   0.0000  63.0000 12.53473438    18
CTC2_L_00501004-03
1 37050U 25979Q   26070.40849537  .00000000  00000+0  00000-0 0  9991
2 37050 101.2000  36.0000 0000000   0.0000 108.0000 12.53473438    10
CTC2_L_00501004-04
1 37051U 26304WX  26070.40849537  .00000000  00000+0  00000-0 0  9995
2 37051 101.2000  36.0000 0000000   0.0000 153.0000 12.53473438    11
CTC2_L_00501004-05
1 37052U 25444RM  26070.40849537  .00000000  00000+0  00000-0 0  9990
2 37052 101.2000  36.0000 0000000   0.0000 198.0000 12.53473438    11
CTC2_L_00501004-06
1 37053U 25129FX  26070.40849537  .00000000  00000+0  00000-0 0  9991
2 37053 101.2000  36.0000 0000000   0.0000 243.0000 12.53473438    13
CTC2_L_00501004-07
1 37054U 23047JH  26070.40849537  .00000000  00000+0  00000-0 0  9999
2 37054 101.2000  36.0000 0000000   0.0000 288.0000 12.53473438    13
CTC2_L_00501004-08
1 37055U 25526BQ  26070.40849537  .00000000  00000+0  00000-0 0  9994
2 37055 101.2000  36.0000 0000000   0.0000 333.0000 12.53473438    15
CTC2_L_00501005-01
1 37056U 26514DX  26070.40849537  .00000000  00000+0  00000-0 0  9993
2 37056 101.2000  48.0000 0000000   0.0000  24.0000 12.53473438    16
CTC2_L_00501005-02
1 37057U 22787PS  26070.40849537  .00000000  00000+0  00000-0 0  9992
2 37057 101.2000  48.0000 0000000   0.0000  69.0000 12.53473438    16
CTC2_L_00501005-03
1 37058U 24787UO  26070.40849537  .00000000  00000+0  00000-0 0  9995
2 37058 101.2000  48.0000 0000000   0.0000 114.0000 12.53473438    18
CTC2_L_00501005-04
1 37059U 26547HW  26070.40849537  .00000000  00000+0  00000-0 0  9992
2 37059 101.2000  48.0000 0000000   0.0000 159.0000 12.53473438    18
CTC2_L_00501005-05
1 37060U 26430AN  26070.40849537  .00000000  00000+0  00000-0 0  9995
2 37060 101.2000  48.0000 0000000   0.0000 204.0000 12.53473438    11
CTC2_L_00501005-06
1 37061U 24639OP  26070.40849537  .00000000  00000+0  00000-0 0  9995
2 37061 101.2000  48.0000 0000000   0.0000 249.0000 12.53473438    11
CTC2_L_00501005-07
1 37062U 26921TL  26070.40849537  .00000000  00000+0  00000-0 0  9992
2 37062 101.2000  48.0000 0000000   0.0000 294.0000 12.53473438    12
CTC2_L_00501005-08
1 37063U 22013SP  26070.40849537  .00000000  00000+0  00000-0 0  9991
2 37063 101.2000  48.0000 0000000   0.0000 339.0000 12.53473438    13
CTC2_L_00501006-01
1 37064U 26167AN  26070.40849537  .00000000  00000+0  00000-0 0  9996
2 37064 101.2000  60.0000 0000000   0.0000  30.0000 12.53473438    16
CTC2_L_00501006-02
1 37065U 23133FQ  26070.40849537  .00000000  00000+0  00000-0 0  9997
2 37065 101.2000  60.0000 0000000   0.0000  75.0000 12.53473438    16
CTC2_L_00501006-03
1 37066U 26230WS  26070.40849537  .00000000  00000+0  00000-0 0  9999
2 37066 101.2000  60.0000 0000000   0.0000 120.0000 12.53473438    18
CTC2_L_00501006-04
1 37067U 24748GR  26070.40849537  .00000000  00000+0  00000-0 0  9992
2 37067 101.2000  60.0000 0000000   0.0000 165.0000 12.53473438    18
CTC2_L_00501006-05
1 37068U 26847CK  26070.40849537  .00000000  00000+0  00000-0 0  9995
2 37068 101.2000  60.0000 0000000   0.0000 210.0000 12.53473438    10
CTC2_L_00501006-06
1 37069U 25855LJ  26070.40849537  .00000000  00000+0  00000-0 0  9994
2 37069 101.2000  60.0000 0000000   0.0000 255.0000 12.53473438    10
CTC2_L_00501006-07
1 37070U 24343LZ  26070.40849537  .00000000  00000+0  00000-0 0  9997
2 37070 101.2000  60.0000 0000000   0.0000 300.0000 12.53473438    13
CTC2_L_00501006-08
1 37071U 26469TG  26070.40849537  .00000000  00000+0  00000-0 0  9999
2 37071 101.2000  60.0000 0000000   0.0000 345.0000 12.53473438    13
CTC2_L_00501007-01
1 37072U 25547ZM  26070.40849537  .00000000  00000+0  00000-0 0  9996
2 37072 101.2000  72.0000 0000000   0.0000  36.0000 12.53473438    14
CTC2_L_00501007-02
1 37073U 23601XY  26070.40849537  .00000000  00000+0  00000-0 0  9996
2 37073 101.2000  72.0000 0000000   0.0000  81.0000 12.53473438    15
CTC2_L_00501007-03
1 37074U 26139GR  26070.40849537  .00000000  00000+0  00000-0 0  9996
2 37074 101.2000  72.0000 0000000   0.0000 126.0000 12.53473438    16
CTC2_L_00501007-04
1 37075U 26659UB  26070.40849537  .00000000  00000+0  00000-0 0  9994
2 37075 101.2000  72.0000 0000000   0.0000 171.0000 12.53473438    17
CTC2_L_00501007-05
1 37076U 26058PQ  26070.40849537  .00000000  00000+0  00000-0 0  9998
2 37076 101.2000  72.0000 0000000   0.0000 216.0000 12.53473438    18
CTC2_L_00501007-06
1 37077U 26439R   26070.40849537  .00000000  00000+0  00000-0 0  9992
2 37077 101.2000  72.0000 0000000   0.0000 261.0000 12.53473438    19
CTC2_L_00501007-07
1 37078U 24880DD  26070.40849537  .00000000  00000+0  00000-0 0  9991
2 37078 101.2000  72.0000 0000000   0.0000 306.0000 12.53473438    10
CTC2_L_00501007-08
1 37079U 26961GH  26070.40849537  .00000000  00000+0  00000-0 0  9994
2 37079 101.2000  72.0000 0000000   0.0000 351.0000 12.53473438    11
CTC2_L_00501008-01
1 37080U 23429LM  26070.40849537  .00000000  00000+0  00000-0 0  9992
2 37080 101.2000  84.0000 0000000   0.0000  42.0000 12.53473438    13
CTC2_L_00501008-02
1 37081U 22699PS  26070.40849537  .00000000  00000+0  00000-0 0  9991
2 37081 101.2000  84.0000 0000000   0.0000  87.0000 12.53473438    13
CTC2_L_00501008-03
1 37082U 26950AN  26070.40849537  .00000000  00000+0  00000-0 0  9996
2 37082 101.2000  84.0000 0000000   0.0000 132.0000 12.53473438    15
CTC2_L_00501008-04
1 37083U 23644VI  26070.40849537  .00000000  00000+0  00000-0 0  9994
2 37083 101.2000  84.0000 0000000   0.0000 177.0000 12.53473438    15
CTC2_L_00501008-05
1 37084U 23726IC  26070.40849537  .00000000  00000+0  00000-0 0  9996
2 37084 101.2000  84.0000 0000000   0.0000 222.0000 12.53473438    17
CTC2_L_00501008-06
1 37085U 22318UI  26070.40849537  .00000000  00000+0  00000-0 0  9993
2 37085 101.2000  84.0000 0000000   0.0000 267.0000 12.53473438    17
